[{"OBJECT_NAME":"IRIDIUM 137","OBJECT_ID":"2017-083G","EPOCH":"2026-03-09T20:35:55.284000","MEAN_MOTION":14.34217602,"ECCENTRICITY":0.00024008,"INCLINATION":86.4028,"RA_OF_ASC_NODE":3.6635,"ARG_OF_PERICENTER":94.3456,"MEAN_ANOMALY":265.8014,"EPHEMERIS_TYPE":0,"CLASSIFICATION_TYPE":"U","NORAD_CAT_ID":43076,"ELEMENT_SET_NO":999,"REV_AT_EPOCH":42993,"BSTAR":5.494784e-6,"MEAN_MOTION_DOT":3.5e-7,"MEAN_MOTION_DDOT":0},{"OBJECT_NAME":"UNKNOWN","OBJECT_ID":"","EPOCH":"2026-03-09T10:01:33.864384","MEAN_MOTION":14.42163832,"ECCENTRICITY":0.0064941,"INCLINATION":70.5256,"RA_OF_ASC_NODE":82.0437,"ARG_OF_PERICENTER":236.416,"MEAN_ANOMALY":123.0764,"EPHEMERIS_TYPE":0,"CLASSIFICATION_TYPE":"U","NORAD_CAT_ID":81228,"ELEMENT_SET_NO":999,"REV_AT_EPOCH":63858,"BSTAR":0.0021222,"MEAN_MOTION_DOT":7.121e-5,"MEAN_MOTION_DDOT":0}]
